0 DELTA 1 DEB
1 13538U 76077EL  13285.69978253 -.00000115  00000-0 -66340-3 0  8366
2 13538 102.3937 004.3796 0108455 070.4381 083.4174 12.21618282480925
0 DELTA 1 DEB
1 13538U 76077EL  13289.44668007 -.00000121  00000-0 -71162-3 0  8372
2 13538 102.3937 008.0616 0108329 063.7660 001.6719 12.21616721481386
0 DELTA 1 DEB
1 13538U 76077EL  13293.72517347 -.00000174  00000-0 -12085-2 0  8385
2 13538 102.3921 012.2650 0108324 056.2581 097.6690 12.21615601481905
0 DELTA 1 DEB
1 13538U 76077EL  13296.15349212 -.00000140  00000-0 -89415-3 0  8395
2 13538 102.3944 014.6529 0107859 051.6672 337.2781 12.21615229482207
